start=new Date('2022-07-27T00:00:00.000Z').valueOf();
sats=[{"NORAD_CAT_ID":"52663","PERIOD":"95.487","PERIAPSIS":"540.978","DECAY_DATE":null,"EPOCH":"2022-07-26T22:00:00.999936","MEAN_ANOMALY":"22.8890","TLE_LINE1":"1 52663U 22053H   22207.91667824 -.00058299  00000-0 -37543-2 0  9999","ELEMENT_SET_NO":"999","MEAN_ELEMENT_THEORY":"SGP4","APOAPSIS":"543.296","GP_ID":"208932266","TIME_SYSTEM":"UTC","FILE":"3522469","RA_OF_ASC_NODE":"327.6546","RCS_SIZE":"LARGE","TLE_LINE2":"2 52663  53.2183 327.6546 0001675  40.2748  22.8890 15.08057993  1303","SEMIMAJOR_AXIS":"6920.272","REV_AT_EPOCH":"130","BSTAR":"-0.00375430000000","EPHEMERIS_TYPE":"0","CLASSIFICATION_TYPE":"U","OBJECT_TYPE":"PAYLOAD","CENTER_NAME":"EARTH","SITE":"AFETR","MEAN_MOTION_DDOT":"0.0000000000000","LAUNCH_DATE":"2022-05-18","MEAN_MOTION":"15.08057993","ARG_OF_PERICENTER":"40.2748","ECCENTRICITY":"0.00016750","OBJECT_ID":"2022-053H","OBJECT_NAME":"STARLINK-4037","COUNTRY_CODE":"US","INCLINATION":"53.2183","REF_FRAME":"TEME","MEAN_MOTION_DOT":"-0.00058299"},{"MEAN_ELEMENT_THEORY":"SGP4","FILE":"3522469","TIME_SYSTEM":"UTC","RCS_SIZE":"MEDIUM","RA_OF_ASC_NODE":"327.7931","APOAPSIS":"540.934","GP_ID":"208932401","REV_AT_EPOCH":"130","BSTAR":"-0.00115300000000","SEMIMAJOR_AXIS":"6917.856","TLE_LINE2":"2 52664  53.2168 327.7931 0001753  47.3872 263.0883 15.08847824  1300","PERIAPSIS":"538.509","NORAD_CAT_ID":"52664","PERIOD":"95.437","EPOCH":"2022-07-26T22:00:00.999936","DECAY_DATE":null,"MEAN_ANOMALY":"263.0883","ELEMENT_SET_NO":"999","TLE_LINE1":"1 52664U 22053J   22207.91667824 -.00018595  00000-0 -11530-2 0  9993","ECCENTRICITY":"0.00017530","OBJECT_ID":"2022-053J","MEAN_MOTION":"15.08847824","ARG_OF_PERICENTER":"47.3872","INCLINATION":"53.2168","REF_FRAME":"TEME","OBJECT_NAME":"STARLINK-4070","COUNTRY_CODE":"US","MEAN_MOTION_DOT":"-0.00018595","OBJECT_TYPE":"PAYLOAD","CLASSIFICATION_TYPE":"U","EPHEMERIS_TYPE":"0","CENTER_NAME":"EARTH","LAUNCH_DATE":"2022-05-18","MEAN_MOTION_DDOT":"0.0000000000000","SITE":"AFETR"},{"ECCENTRICITY":"0.00019210","OBJECT_ID":"2022-053K","MEAN_MOTION":"15.08859275","ARG_OF_PERICENTER":"40.2507","MEAN_MOTION_DOT":"-0.00014057","INCLINATION":"53.2205","REF_FRAME":"TEME","OBJECT_NAME":"STARLINK-4064","COUNTRY_CODE":"US","OBJECT_TYPE":"PAYLOAD","CLASSIFICATION_TYPE":"U","EPHEMERIS_TYPE":"0","LAUNCH_DATE":"2022-05-18","MEAN_MOTION_DDOT":"0.0000000000000","SITE":"AFETR","CENTER_NAME":"EARTH","TIME_SYSTEM":"UTC","FILE":"3522469","RA_OF_ASC_NODE":"327.7799","RCS_SIZE":"LARGE","APOAPSIS":"541.015","GP_ID":"208932515","MEAN_ELEMENT_THEORY":"SGP4","REV_AT_EPOCH":"130","BSTAR":"-0.00086635000000","SEMIMAJOR_AXIS":"6917.821","TLE_LINE2":"2 52665  53.2205 327.7799 0001921  40.2507  10.2907 15.08859275  1301","EPOCH":"2022-07-26T22:00:00.999936","DECAY_DATE":null,"PERIAPSIS":"538.358","NORAD_CAT_ID":"52665","PERIOD":"95.436","ELEMENT_SET_NO":"999","TLE_LINE1":"1 52665U 22053K   22207.91667824 -.00014057  00000-0 -86635-3 0  9992","MEAN_ANOMALY":"10.2907"},{"CENTER_NAME":"EARTH","SITE":"AFETR","MEAN_MOTION_DDOT":"0.0000000000000","LAUNCH_DATE":"2022-05-18","EPHEMERIS_TYPE":"0","CLASSIFICATION_TYPE":"U","OBJECT_TYPE":"PAYLOAD","COUNTRY_CODE":"US","OBJECT_NAME":"STARLINK-4079","INCLINATION":"53.2193","REF_FRAME":"TEME","MEAN_MOTION_DOT":"-0.00016521","MEAN_MOTION":"15.08856131","ARG_OF_PERICENTER":"39.4166","ECCENTRICITY":"0.00019500","OBJECT_ID":"2022-053L","MEAN_ANOMALY":"331.1080","TLE_LINE1":"1 52666U 22053L   22207.91667824 -.00016521  00000-0 -10218-2 0  9994","ELEMENT_SET_NO":"999","NORAD_CAT_ID":"52666","PERIOD":"95.437","PERIAPSIS":"538.347","DECAY_DATE":null,"EPOCH":"2022-07-26T22:00:00.999936","TLE_LINE2":"2 52666  53.2193 327.7942 0001950  39.4166 331.1080 15.08856131  1306","SEMIMAJOR_AXIS":"6917.831","REV_AT_EPOCH":"130","BSTAR":"-0.00102180000000","MEAN_ELEMENT_THEORY":"SGP4","APOAPSIS":"541.045","GP_ID":"208932744","FILE":"3522469","TIME_SYSTEM":"UTC","RCS_SIZE":"LARGE","RA_OF_ASC_NODE":"327.7942"},{"EPHEMERIS_TYPE":"0","CLASSIFICATION_TYPE":"U","OBJECT_TYPE":"PAYLOAD","MEAN_MOTION_DDOT":"0.0000000000000","SITE":"AFETR","LAUNCH_DATE":"2022-05-18","CENTER_NAME":"EARTH","MEAN_MOTION":"15.08845266","ARG_OF_PERICENTER":"39.9929","ECCENTRICITY":"0.00018290","OBJECT_ID":"2022-053M","MEAN_MOTION_DOT":"-0.00013324","COUNTRY_CODE":"US","OBJECT_NAME":"STARLINK-4076","INCLINATION":"53.2207","REF_FRAME":"TEME","DECAY_DATE":null,"EPOCH":"2022-07-26T22:00:00.999936","NORAD_CAT_ID":"52667","PERIOD":"95.437","PERIAPSIS":"538.464","TLE_LINE1":"1 52667U 22053M   22207.91667824 -.00013324  00000-0 -82048-3 0  9994","ELEMENT_SET_NO":"999","MEAN_ANOMALY":"30.5792","APOAPSIS":"540.995","GP_ID":"208932629","TIME_SYSTEM":"UTC","FILE":"3522469","RCS_SIZE":"LARGE","RA_OF_ASC_NODE":"327.7801","MEAN_ELEMENT_THEORY":"SGP4","TLE_LINE2":"2 52667  53.2207 327.7801 0001829  39.9929  30.5792 15.08845266  1301","SEMIMAJOR_AXIS":"6917.864","REV_AT_EPOCH":"130","BSTAR":"-0.00082048000000"},{"EPOCH":"2022-07-26T22:00:00.999936","DECAY_DATE":null,"PERIAPSIS":"538.457","NORAD_CAT_ID":"52668","PERIOD":"95.436","ELEMENT_SET_NO":"999","TLE_LINE1":"1 52668U 22053N   22207.91667824 -.00015357  00000-0 -94810-3 0  9993","MEAN_ANOMALY":"350.1176","FILE":"3522469","TIME_SYSTEM":"UTC","RA_OF_ASC_NODE":"327.7826","RCS_SIZE":"LARGE","APOAPSIS":"540.870","GP_ID":"208932039","MEAN_ELEMENT_THEORY":"SGP4","REV_AT_EPOCH":"130","BSTAR":"-0.00094810000000","TLE_LINE2":"2 52668  53.2200 327.7826 0001744  40.3840 350.1176 15.08866928  1301","SEMIMAJOR_AXIS":"6917.798","OBJECT_TYPE":"PAYLOAD","EPHEMERIS_TYPE":"0","CLASSIFICATION_TYPE":"U","LAUNCH_DATE":"2022-05-18","MEAN_MOTION_DDOT":"0.0000000000000","SITE":"AFETR","CENTER_NAME":"EARTH","ECCENTRICITY":"0.00017440","OBJECT_ID":"2022-053N","MEAN_MOTION":"15.08866928","ARG_OF_PERICENTER":"40.3840","MEAN_MOTION_DOT":"-0.00015357","INCLINATION":"53.2200","REF_FRAME":"TEME","OBJECT_NAME":"STARLINK-4067","COUNTRY_CODE":"US"},{"NORAD_CAT_ID":"52669","PERIOD":"95.436","PERIAPSIS":"538.320","DECAY_DATE":null,"EPOCH":"2022-07-26T22:00:00.999936","MEAN_ANOMALY":"93.8404","TLE_LINE1":"1 52669U 22053P   22207.91667824 -.00009843  00000-0 -60074-3 0  9992","ELEMENT_SET_NO":"999","MEAN_ELEMENT_THEORY":"SGP4","APOAPSIS":"541.020","GP_ID":"208932153","FILE":"3522469","TIME_SYSTEM":"UTC","RA_OF_ASC_NODE":"327.7783","RCS_SIZE":"LARGE","TLE_LINE2":"2 52669  53.2215 327.7783 0001952  36.7201  93.8404 15.08864706  1308","SEMIMAJOR_AXIS":"6917.805","REV_AT_EPOCH":"130","BSTAR":"-0.00060074000000","EPHEMERIS_TYPE":"0","CLASSIFICATION_TYPE":"U","OBJECT_TYPE":"PAYLOAD","CENTER_NAME":"EARTH","MEAN_MOTION_DDOT":"0.0000000000000","SITE":"AFETR","LAUNCH_DATE":"2022-05-18","MEAN_MOTION":"15.08864706","ARG_OF_PERICENTER":"36.7201","ECCENTRICITY":"0.00019520","OBJECT_ID":"2022-053P","COUNTRY_CODE":"US","OBJECT_NAME":"STARLINK-3972","INCLINATION":"53.2215","REF_FRAME":"TEME","MEAN_MOTION_DOT":"-0.00009843"},{"MEAN_ANOMALY":"6.0243","ELEMENT_SET_NO":"999","TLE_LINE1":"1 52670U 22053Q   22207.91667824 -.00014905  00000-0 -91979-3 0  9997","PERIAPSIS":"538.412","NORAD_CAT_ID":"52670","PERIOD":"95.436","EPOCH":"2022-07-26T22:00:00.999936","DECAY_DATE":null,"REV_AT_EPOCH":"130","BSTAR":"-0.00091979000000","TLE_LINE2":"2 52670  53.2204 327.7800 0001841  39.3781   6.0243 15.08859500  1300","SEMIMAJOR_AXIS":"6917.821","MEAN_ELEMENT_THEORY":"SGP4","FILE":"3522469","TIME_SYSTEM":"UTC","RA_OF_ASC_NODE":"327.7800","RCS_SIZE":"LARGE","APOAPSIS":"540.959","GP_ID":"208932837","CENTER_NAME":"EARTH","LAUNCH_DATE":"2022-05-18","SITE":"AFETR","MEAN_MOTION_DDOT":"0.0000000000000","OBJECT_TYPE":"PAYLOAD","CLASSIFICATION_TYPE":"U","EPHEMERIS_TYPE":"0","INCLINATION":"53.2204","REF_FRAME":"TEME","OBJECT_NAME":"STARLINK-4075","COUNTRY_CODE":"US","MEAN_MOTION_DOT":"-0.00014905","ECCENTRICITY":"0.00018410","OBJECT_ID":"2022-053Q","MEAN_MOTION":"15.08859500","ARG_OF_PERICENTER":"39.3781"},{"TLE_LINE1":"1 52671U 22053R   22207.91667824  .00003067  00000-0  21076-3 0  9994","ELEMENT_SET_NO":"999","MEAN_ANOMALY":"101.8840","DECAY_DATE":null,"EPOCH":"2022-07-26T22:00:00.999936","NORAD_CAT_ID":"52671","PERIOD":"95.438","PERIAPSIS":"538.641","TLE_LINE2":"2 52671  53.2173 327.7836 0001619  48.7183 101.8840 15.08834979  1308","SEMIMAJOR_AXIS":"6917.896","REV_AT_EPOCH":"130","BSTAR":"0.00021076000000","APOAPSIS":"540.881","GP_ID":"208932267","TIME_SYSTEM":"UTC","FILE":"3522469","RA_OF_ASC_NODE":"327.7836","RCS_SIZE":"LARGE","MEAN_ELEMENT_THEORY":"SGP4","SITE":"AFETR","MEAN_MOTION_DDOT":"0.0000000000000","LAUNCH_DATE":"2022-05-18","CENTER_NAME":"EARTH","EPHEMERIS_TYPE":"0","CLASSIFICATION_TYPE":"U","OBJECT_TYPE":"PAYLOAD","MEAN_MOTION_DOT":"0.00003067","OBJECT_NAME":"STARLINK-4071","COUNTRY_CODE":"US","INCLINATION":"53.2173","REF_FRAME":"TEME","MEAN_MOTION":"15.08834979","ARG_OF_PERICENTER":"48.7183","ECCENTRICITY":"0.00016190","OBJECT_ID":"2022-053R"},{"CENTER_NAME":"EARTH","LAUNCH_DATE":"2022-05-18","MEAN_MOTION_DDOT":"0.0000000000000","SITE":"AFETR","OBJECT_TYPE":"PAYLOAD","CLASSIFICATION_TYPE":"U","EPHEMERIS_TYPE":"0","REF_FRAME":"TEME","INCLINATION":"53.2207","OBJECT_NAME":"STARLINK-4073","COUNTRY_CODE":"US","MEAN_MOTION_DOT":"-0.00012175","OBJECT_ID":"2022-053S","ECCENTRICITY":"0.00018970","ARG_OF_PERICENTER":"42.1146","MEAN_MOTION":"15.08862497","MEAN_ANOMALY":"48.4477","ELEMENT_SET_NO":"999","TLE_LINE1":"1 52672U 22053S   22207.91667824 -.00012175  00000-0 -74769-3 0  9994","PERIAPSIS":"538.364","PERIOD":"95.436","NORAD_CAT_ID":"52672","EPOCH":"2022-07-26T22:00:00.999936","DECAY_DATE":null,"BSTAR":"-0.00074769000000","REV_AT_EPOCH":"130","TLE_LINE2":"2 52672  53.2207 327.7802 0001897  42.1146  48.4477 15.08862497  1303","SEMIMAJOR_AXIS":"6917.812","MEAN_ELEMENT_THEORY":"SGP4","RA_OF_ASC_NODE":"327.7802","RCS_SIZE":"LARGE","TIME_SYSTEM":"UTC","FILE":"3522469","GP_ID":"208932402","APOAPSIS":"540.989"}];
